ONEWEB-0273             
1 48991U 21060AA  23336.59575473  .00000114  00000+0  26425-3 0  9999
2 48991  87.9090  53.3934 0001574 110.6536 249.4763 13.16593310117536
ONEWEB-0274             
1 48992U 21060AB  23336.24111032  .00001789  00000+0  46457-2 0  9994
2 48992  87.9090  53.4677 0001262  88.5777 271.5498 13.16587745117521
ONEWEB-0275             
1 48993U 21060AC  23336.76251851 -.00000210  00000+0 -58380-3 0  9995
2 48993  87.9082  53.3610 0001700 103.4861 256.6459 13.16601761118816
ONEWEB-0276             
1 48994U 21060AD  23336.26432217  .00000040  00000+0  70094-4 0  9994
2 48994  87.9090  53.4527 0001543 116.9129 243.2159 13.16594312117478
ONEWEB-0277             
1 48995U 21060AE  23336.73296928  .00000100  00000+0  22749-3 0  9994
2 48995  87.9091  53.3983 0001269 122.5002 237.6252 13.16594119118818
ONEWEB-0278             
1 48996U 21060AF  23336.26643498 -.00000090  00000+0 -26781-3 0  9991
2 48996  87.9089  53.4485 0001977  97.8728 262.2627 13.16594437117596
ONEWEB-0279             
1 48997U 21060AG  23336.57887569 -.00000119  00000+0 -34412-3 0  9997
2 48997  87.9089  53.3847 0001654 103.8566 256.2749 13.16595108117569
ONEWEB-0280             
1 48998U 21060AH  23336.74563317  .00000103  00000+0  23684-3 0  9999
2 48998  87.9089  53.3514 0001005 119.6058 240.5173 13.16594077118812
